{
"type": "FeatureCollection",
"name": "isochrones",
"crs": { "type": "name", "properties": { "name": "urn:ogc:def:crs:OGC:1.3:CRS84" } },
"features": [
{ "type": "Feature", "properties": { "group_index": 0, "value": 300.0, "center": [ 16.4314896801475, 48.206401890957586 ], "station_id": 0, "station_name": "Donaumarina" }, "geometry": { "type": "Polygon", "coordinates": [ [ [ 16.427526, 48.208979 ], [ 16.427431, 48.208154 ], [ 16.427471, 48.207165 ], [ 16.428258, 48.205876 ], [ 16.428448, 48.20557 ], [ 16.429967, 48.20343 ], [ 16.430327, 48.203425 ], [ 16.434495, 48.20343 ], [ 16.434605, 48.203433 ], [ 16.435199, 48.203501 ], [ 16.43528, 48.203557 ], [ 16.435479, 48.203856 ], [ 16.433662, 48.205781 ], [ 16.433511, 48.205886 ], [ 16.430614, 48.207793 ], [ 16.427732, 48.209273 ], [ 16.427526, 48.208979 ] ] ] } },
{ "type": "Feature", "properties": { "group_index": 0, "value": 600.0, "center": [ 16.4314896801475, 48.206401890957586 ], "station_id": 0, "station_name": "Donaumarina" }, "geometry": { "type": "Polygon", "coordinates": [ [ [ 16.423821, 48.211932 ], [ 16.423612, 48.211639 ], [ 16.422721, 48.210059 ], [ 16.42253, 48.208946 ], [ 16.423106, 48.208023 ], [ 16.423168, 48.20804 ], [ 16.427162, 48.204578 ], [ 16.426127, 48.202594 ], [ 16.425918, 48.202345 ], [ 16.426882, 48.200655 ], [ 16.427085, 48.200358 ], [ 16.427725, 48.20035 ], [ 16.427779, 48.20035 ], [ 16.431486, 48.200736 ], [ 16.433822, 48.200704 ], [ 16.437725, 48.2007 ], [ 16.437893, 48.200716 ], [ 16.439215, 48.200884 ], [ 16.439419, 48.20118 ], [ 16.438191, 48.202776 ], [ 16.437135, 48.206776 ], [ 16.436931, 48.207073 ], [ 16.43282, 48.206506 ], [ 16.430614, 48.207793 ], [ 16.429028, 48.208887 ], [ 16.427896, 48.209674 ], [ 16.427753, 48.209783 ], [ 16.427605, 48.209897 ], [ 16.427052, 48.210288 ], [ 16.4265, 48.21068 ], [ 16.423876, 48.212 ], [ 16.423821, 48.211932 ] ] ] } },
{ "type": "Feature", "properties": { "group_index": 0, "value": 900.0, "center": [ 16.4314896801475, 48.206401890957586 ], "station_id": 0, "station_name": "Donaumarina" }, "geometry": { "type": "Polygon", "coordinates": [ [ [ 16.419253, 48.214776 ], [ 16.418462, 48.209645 ], [ 16.418426, 48.208456 ], [ 16.418694, 48.207291 ], [ 16.418874, 48.206979 ], [ 16.419929, 48.205755 ], [ 16.421951, 48.20131 ], [ 16.422889, 48.198865 ], [ 16.423225, 48.19796 ], [ 16.423429, 48.197664 ], [ 16.428074, 48.197889 ], [ 16.429852, 48.197285 ], [ 16.42997, 48.197293 ], [ 16.430243, 48.197452 ], [ 16.434548, 48.19886 ], [ 16.43825, 48.197629 ], [ 16.438314, 48.197586 ], [ 16.438454, 48.197568 ], [ 16.443554, 48.19792 ], [ 16.443755, 48.198218 ], [ 16.442403, 48.200115 ], [ 16.441059, 48.200818 ], [ 16.440823, 48.206593 ], [ 16.440929, 48.206937 ], [ 16.44035, 48.207972 ], [ 16.439452, 48.209005 ], [ 16.438425, 48.208997 ], [ 16.436311, 48.208913 ], [ 16.430614, 48.207793 ], [ 16.430252, 48.207977 ], [ 16.429028, 48.208887 ], [ 16.427896, 48.209674 ], [ 16.427753, 48.209783 ], [ 16.427605, 48.209897 ], [ 16.425272, 48.212109 ], [ 16.425032, 48.21228 ], [ 16.424791, 48.212451 ], [ 16.424107, 48.212922 ], [ 16.423803, 48.21314 ], [ 16.423499, 48.213357 ], [ 16.419465, 48.215067 ], [ 16.419253, 48.214776 ] ] ] } },
{ "type": "Feature", "properties": { "group_index": 1, "value": 300.0, "center": [ 16.413846361933025, 48.21477901003483 ], "station_id": 1, "station_name": "Krieau" }, "geometry": { "type": "Polygon", "coordinates": [ [ [ 16.412016, 48.216122 ], [ 16.411981, 48.215859 ], [ 16.411708, 48.212675 ], [ 16.411751, 48.212533 ], [ 16.411986, 48.212261 ], [ 16.412819, 48.211799 ], [ 16.415732, 48.211984 ], [ 16.418127, 48.212385 ], [ 16.418337, 48.212677 ], [ 16.418347, 48.212842 ], [ 16.41822, 48.214496 ], [ 16.418104, 48.215019 ], [ 16.416745, 48.216632 ], [ 16.416385, 48.216616 ], [ 16.412234, 48.216409 ], [ 16.412016, 48.216122 ] ] ] } },
{ "type": "Feature", "properties": { "group_index": 1, "value": 600.0, "center": [ 16.413846361933025, 48.21477901003483 ], "station_id": 1, "station_name": "Krieau" }, "geometry": { "type": "Polygon", "coordinates": [ [ [ 16.407622, 48.218197 ], [ 16.407582, 48.218136 ], [ 16.407438, 48.217883 ], [ 16.406876, 48.21326 ], [ 16.407468, 48.210492 ], [ 16.408536, 48.209355 ], [ 16.410873, 48.209188 ], [ 16.411389, 48.209293 ], [ 16.417364, 48.209216 ], [ 16.419857, 48.209395 ], [ 16.42093, 48.209659 ], [ 16.422302, 48.210358 ], [ 16.422511, 48.210651 ], [ 16.42234, 48.21164 ], [ 16.421958, 48.213762 ], [ 16.421771, 48.2139 ], [ 16.42177, 48.213901 ], [ 16.421669, 48.213975 ], [ 16.416963, 48.216773 ], [ 16.414091, 48.219087 ], [ 16.413788, 48.219316 ], [ 16.413485, 48.219545 ], [ 16.408494, 48.219205 ], [ 16.407622, 48.218197 ] ] ] } },
{ "type": "Feature", "properties": { "group_index": 1, "value": 900.0, "center": [ 16.413846361933025, 48.21477901003483 ], "station_id": 1, "station_name": "Krieau" }, "geometry": { "type": "Polygon", "coordinates": [ [ [ 16.401922, 48.218049 ], [ 16.401908, 48.217987 ], [ 16.401907, 48.217627 ], [ 16.402396, 48.213598 ], [ 16.403186, 48.209759 ], [ 16.40501, 48.207303 ], [ 16.40539, 48.206943 ], [ 16.409295, 48.206253 ], [ 16.413581, 48.205941 ], [ 16.417873, 48.205811 ], [ 16.422472, 48.206471 ], [ 16.42598, 48.208026 ], [ 16.426098, 48.208096 ], [ 16.426623, 48.208643 ], [ 16.426836, 48.208933 ], [ 16.426767, 48.209145 ], [ 16.426323, 48.210274 ], [ 16.426021, 48.211019 ], [ 16.425497, 48.211728 ], [ 16.424687, 48.212304 ], [ 16.423097, 48.213424 ], [ 16.418679, 48.216733 ], [ 16.415505, 48.219125 ], [ 16.414954, 48.219537 ], [ 16.414414, 48.219941 ], [ 16.411914, 48.221793 ], [ 16.411713, 48.221939 ], [ 16.411513, 48.222085 ], [ 16.409746, 48.222346 ], [ 16.404805, 48.222033 ], [ 16.404451, 48.221718 ], [ 16.401922, 48.218049 ] ] ] } },
{ "type": "Feature", "properties": { "group_index": 2, "value": 300.0, "center": [ 16.40497451071636, 48.21777657617269 ], "station_id": 2, "station_name": "Messe – Prater" }, "geometry": { "type": "Polygon", "coordinates": [ [ [ 16.399476, 48.217697 ], [ 16.399921, 48.217091 ], [ 16.401965, 48.215595 ], [ 16.403749, 48.214389 ], [ 16.404197, 48.21429 ], [ 16.405738, 48.214284 ], [ 16.406613, 48.214368 ], [ 16.407602, 48.214562 ], [ 16.410138, 48.216887 ], [ 16.410294, 48.217211 ], [ 16.410442, 48.217559 ], [ 16.410459, 48.217749 ], [ 16.410442, 48.21796 ], [ 16.410377, 48.218246 ], [ 16.409049, 48.219972 ], [ 16.407149, 48.22101 ], [ 16.404698, 48.221117 ], [ 16.404606, 48.221117 ], [ 16.404563, 48.22111 ], [ 16.402648, 48.220528 ], [ 16.399478, 48.218057 ], [ 16.399476, 48.217697 ] ] ] } },
{ "type": "Feature", "properties": { "group_index": 2, "value": 600.0, "center": [ 16.40497451071636, 48.21777657617269 ], "station_id": 2, "station_name": "Messe – Prater" }, "geometry": { "type": "Polygon", "coordinates": [ [ [ 16.393824, 48.218037 ], [ 16.393843, 48.217678 ], [ 16.395981, 48.215316 ], [ 16.397767, 48.21371 ], [ 16.39923, 48.212414 ], [ 16.402577, 48.211156 ], [ 16.402683, 48.211132 ], [ 16.406001, 48.210704 ], [ 16.409406, 48.21138 ], [ 16.411138, 48.212066 ], [ 16.414186, 48.214738 ], [ 16.414894, 48.216124 ], [ 16.414958, 48.21731 ], [ 16.414804, 48.218335 ], [ 16.414235, 48.219971 ], [ 16.413006, 48.220984 ], [ 16.412896, 48.221066 ], [ 16.408088, 48.223583 ], [ 16.402598, 48.22383 ], [ 16.402453, 48.223826 ], [ 16.400519, 48.223375 ], [ 16.400216, 48.223215 ], [ 16.398841, 48.222443 ], [ 16.394713, 48.218842 ], [ 16.393938, 48.21831 ], [ 16.393824, 48.218037 ] ] ] } },
{ "type": "Feature", "properties": { "group_index": 2, "value": 900.0, "center": [ 16.40497451071636, 48.21777657617269 ], "station_id": 2, "station_name": "Messe – Prater" }, "geometry": { "type": "Polygon", "coordinates": [ [ [ 16.393618, 48.223293 ], [ 16.390387, 48.21991 ], [ 16.3888, 48.218132 ], [ 16.388694, 48.217788 ], [ 16.388786, 48.217432 ], [ 16.388837, 48.217298 ], [ 16.389, 48.216977 ], [ 16.391746, 48.213876 ], [ 16.391846, 48.213766 ], [ 16.393117, 48.212795 ], [ 16.395868, 48.210776 ], [ 16.400195, 48.207504 ], [ 16.400549, 48.207441 ], [ 16.40598, 48.207699 ], [ 16.406643, 48.207696 ], [ 16.411526, 48.208326 ], [ 16.411863, 48.208396 ], [ 16.412848, 48.20871 ], [ 16.415981, 48.210962 ], [ 16.418354, 48.21231 ], [ 16.418565, 48.212602 ], [ 16.418714, 48.213598 ], [ 16.418781, 48.214412 ], [ 16.418839, 48.215627 ], [ 16.418346, 48.216957 ], [ 16.417103, 48.217932 ], [ 16.415505, 48.219125 ], [ 16.414954, 48.219537 ], [ 16.414414, 48.219941 ], [ 16.413006, 48.220984 ], [ 16.412896, 48.221066 ], [ 16.409443, 48.223756 ], [ 16.406548, 48.226732 ], [ 16.402565, 48.226763 ], [ 16.398958, 48.226825 ], [ 16.398796, 48.226804 ], [ 16.397173, 48.226213 ], [ 16.395347, 48.225324 ], [ 16.395306, 48.225302 ], [ 16.393618, 48.223293 ] ] ] } },
{ "type": "Feature", "properties": { "group_index": 3, "value": 300.0, "center": [ 16.385490396546704, 48.21522648810217 ], "station_id": 3, "station_name": "Nestroyplatz" }, "geometry": { "type": "Polygon", "coordinates": [ [ [ 16.380868, 48.213071 ], [ 16.38103, 48.21275 ], [ 16.382905, 48.212227 ], [ 16.383438, 48.212233 ], [ 16.384559, 48.212487 ], [ 16.38774, 48.213324 ], [ 16.388897, 48.213647 ], [ 16.389207, 48.213828 ], [ 16.389861, 48.214328 ], [ 16.389895, 48.214686 ], [ 16.390066, 48.217206 ], [ 16.390043, 48.217399 ], [ 16.389874, 48.217717 ], [ 16.38913, 48.217883 ], [ 16.387396, 48.218151 ], [ 16.385953, 48.218147 ], [ 16.383386, 48.217703 ], [ 16.38139, 48.216001 ], [ 16.380868, 48.213071 ] ] ] } },
{ "type": "Feature", "properties": { "group_index": 3, "value": 600.0, "center": [ 16.385490396546704, 48.21522648810217 ], "station_id": 3, "station_name": "Nestroyplatz" }, "geometry": { "type": "Polygon", "coordinates": [ [ [ 16.377026, 48.217074 ], [ 16.376418, 48.215721 ], [ 16.376057, 48.213504 ], [ 16.376407, 48.21232 ], [ 16.377325, 48.210954 ], [ 16.377802, 48.210515 ], [ 16.378092, 48.210301 ], [ 16.382013, 48.20861 ], [ 16.382192, 48.208598 ], [ 16.382499, 48.208613 ], [ 16.38263, 48.208644 ], [ 16.384067, 48.209102 ], [ 16.384179, 48.209154 ], [ 16.385665, 48.209937 ], [ 16.390649, 48.211406 ], [ 16.392771, 48.211845 ], [ 16.394083, 48.21232 ], [ 16.394243, 48.212584 ], [ 16.39433, 48.212813 ], [ 16.395032, 48.217893 ], [ 16.394963, 48.218127 ], [ 16.393297, 48.220041 ], [ 16.393216, 48.220073 ], [ 16.390984, 48.22081 ], [ 16.390454, 48.220969 ], [ 16.388273, 48.22153 ], [ 16.386328, 48.22127 ], [ 16.384974, 48.220993 ], [ 16.379919, 48.219806 ], [ 16.378726, 48.218892 ], [ 16.377913, 48.218105 ], [ 16.377026, 48.217074 ] ] ] } },
{ "type": "Feature", "properties": { "group_index": 3, "value": 900.0, "center": [ 16.385490396546704, 48.21522648810217 ], "station_id": 3, "station_name": "Nestroyplatz" }, "geometry": { "type": "Polygon", "coordinates": [ [ [ 16.375912, 48.222334 ], [ 16.373154, 48.218992 ], [ 16.373056, 48.218693 ], [ 16.371827, 48.213103 ], [ 16.371837, 48.213035 ], [ 16.372984, 48.209671 ], [ 16.373007, 48.20962 ], [ 16.373051, 48.209517 ], [ 16.373281, 48.20924 ], [ 16.374524, 48.208907 ], [ 16.378484, 48.205893 ], [ 16.378733, 48.205633 ], [ 16.379024, 48.205502 ], [ 16.380917, 48.205295 ], [ 16.382262, 48.205629 ], [ 16.387473, 48.206865 ], [ 16.387605, 48.206901 ], [ 16.392881, 48.208357 ], [ 16.394195, 48.20865 ], [ 16.397013, 48.209271 ], [ 16.397319, 48.209459 ], [ 16.398669, 48.211935 ], [ 16.399075, 48.213435 ], [ 16.400574, 48.217691 ], [ 16.400626, 48.217948 ], [ 16.400583, 48.218159 ], [ 16.397535, 48.2223 ], [ 16.395585, 48.222903 ], [ 16.390474, 48.224496 ], [ 16.389524, 48.224797 ], [ 16.389019, 48.224944 ], [ 16.387949, 48.224858 ], [ 16.384792, 48.224202 ], [ 16.382895, 48.223794 ], [ 16.380806, 48.22338 ], [ 16.376146, 48.222607 ], [ 16.375912, 48.222334 ] ] ] } },
{ "type": "Feature", "properties": { "group_index": 4, "value": 300.0, "center": [ 16.393080389668906, 48.219765247847356 ], "station_id": 4, "station_name": "Praterstern" }, "geometry": { "type": "Polygon", "coordinates": [ [ [ 16.388671, 48.219847 ], [ 16.388371, 48.219228 ], [ 16.388369, 48.219219 ], [ 16.388423, 48.218901 ], [ 16.389436, 48.217361 ], [ 16.391581, 48.216548 ], [ 16.391995, 48.21659 ], [ 16.394571, 48.217258 ], [ 16.394942, 48.217544 ], [ 16.396999, 48.219351 ], [ 16.397388, 48.220377 ], [ 16.397548, 48.22133 ], [ 16.397582, 48.221618 ], [ 16.397411, 48.221934 ], [ 16.397247, 48.222149 ], [ 16.394069, 48.222644 ], [ 16.392616, 48.222792 ], [ 16.392264, 48.222718 ], [ 16.39189, 48.222605 ], [ 16.38991, 48.221236 ], [ 16.388671, 48.219847 ] ] ] } },
{ "type": "Feature", "properties": { "group_index": 4, "value": 600.0, "center": [ 16.393080389668906, 48.219765247847356 ], "station_id": 4, "station_name": "Praterstern" }, "geometry": { "type": "Polygon", "coordinates": [ [ [ 16.384132, 48.221567 ], [ 16.38341, 48.220269 ], [ 16.383341, 48.219916 ], [ 16.384883, 48.21518 ], [ 16.385088, 48.214884 ], [ 16.385964, 48.214812 ], [ 16.391328, 48.213298 ], [ 16.391657, 48.213154 ], [ 16.392042, 48.213124 ], [ 16.392934, 48.213077 ], [ 16.396025, 48.214033 ], [ 16.398403, 48.214993 ], [ 16.398683, 48.215219 ], [ 16.4018, 48.218617 ], [ 16.402099, 48.219335 ], [ 16.402099, 48.219695 ], [ 16.401955, 48.224044 ], [ 16.401938, 48.224259 ], [ 16.40191, 48.224283 ], [ 16.40052, 48.224583 ], [ 16.397301, 48.225236 ], [ 16.394106, 48.225979 ], [ 16.393205, 48.226199 ], [ 16.393066, 48.226226 ], [ 16.392787, 48.226233 ], [ 16.392447, 48.226115 ], [ 16.389165, 48.224754 ], [ 16.388089, 48.22426 ], [ 16.388024, 48.224229 ], [ 16.385122, 48.222339 ], [ 16.384206, 48.221668 ], [ 16.384132, 48.221567 ] ] ] } },
{ "type": "Feature", "properties": { "group_index": 4, "value": 900.0, "center": [ 16.393080389668906, 48.219765247847356 ], "station_id": 4, "station_name": "Praterstern" }, "geometry": { "type": "Polygon", "coordinates": [ [ [ 16.38011, 48.223635 ], [ 16.379191, 48.22026 ], [ 16.379036, 48.219424 ], [ 16.379024, 48.219359 ], [ 16.379175, 48.217773 ], [ 16.379709, 48.215452 ], [ 16.380599, 48.212959 ], [ 16.380729, 48.212623 ], [ 16.382101, 48.212235 ], [ 16.383084, 48.212046 ], [ 16.38324, 48.212029 ], [ 16.383384, 48.212025 ], [ 16.388416, 48.210963 ], [ 16.38918, 48.210123 ], [ 16.389382, 48.209871 ], [ 16.389679, 48.209799 ], [ 16.39125, 48.209671 ], [ 16.39613, 48.210291 ], [ 16.398794, 48.210895 ], [ 16.401491, 48.212289 ], [ 16.402647, 48.213001 ], [ 16.403175, 48.213499 ], [ 16.404944, 48.215477 ], [ 16.407386, 48.218573 ], [ 16.407124, 48.220579 ], [ 16.406946, 48.226538 ], [ 16.406775, 48.226854 ], [ 16.403233, 48.227241 ], [ 16.398315, 48.228314 ], [ 16.393754, 48.229439 ], [ 16.392759, 48.229638 ], [ 16.391297, 48.22991 ], [ 16.388308, 48.228527 ], [ 16.383246, 48.225811 ], [ 16.380232, 48.223974 ], [ 16.38011, 48.223635 ] ] ] } },
{ "type": "Feature", "properties": { "group_index": 5, "value": 300.0, "center": [ 16.372192460717095, 48.21726662897808 ], "station_id": 5, "station_name": "Schottenring" }, "geometry": { "type": "Polygon", "coordinates": [ [ [ 16.368091, 48.217644 ], [ 16.368243, 48.217318 ], [ 16.368285, 48.217262 ], [ 16.369272, 48.217146 ], [ 16.373814, 48.213957 ], [ 16.373862, 48.213923 ], [ 16.374288, 48.213694 ], [ 16.374439, 48.213698 ], [ 16.37473, 48.21383 ], [ 16.37521, 48.214223 ], [ 16.3744, 48.215408 ], [ 16.371501, 48.219454 ], [ 16.371277, 48.219736 ], [ 16.368536, 48.219888 ], [ 16.368254, 48.219666 ], [ 16.368091, 48.217644 ] ] ] } },
{ "type": "Feature", "properties": { "group_index": 5, "value": 600.0, "center": [ 16.372192460717095, 48.21726662897808 ], "station_id": 5, "station_name": "Schottenring" }, "geometry": { "type": "Polygon", "coordinates": [ [ [ 16.363187, 48.219333 ], [ 16.363086, 48.218987 ], [ 16.36349, 48.215495 ], [ 16.363637, 48.215166 ], [ 16.364799, 48.214944 ], [ 16.365466, 48.214874 ], [ 16.365607, 48.214855 ], [ 16.370693, 48.211955 ], [ 16.37101, 48.211511 ], [ 16.37102, 48.211498 ], [ 16.371512, 48.210836 ], [ 16.371555, 48.210803 ], [ 16.375085, 48.210593 ], [ 16.377739, 48.211227 ], [ 16.378651, 48.211485 ], [ 16.379836, 48.211867 ], [ 16.379895, 48.212222 ], [ 16.378706, 48.216029 ], [ 16.378696, 48.216057 ], [ 16.378111, 48.216864 ], [ 16.37636, 48.219281 ], [ 16.375124, 48.222318 ], [ 16.374904, 48.222602 ], [ 16.369701, 48.223087 ], [ 16.36778, 48.223551 ], [ 16.367738, 48.223559 ], [ 16.367532, 48.223454 ], [ 16.367315, 48.223307 ], [ 16.365925, 48.22224 ], [ 16.364594, 48.220988 ], [ 16.363187, 48.219333 ] ] ] } },
{ "type": "Feature", "properties": { "group_index": 5, "value": 900.0, "center": [ 16.372192460717095, 48.21726662897808 ], "station_id": 5, "station_name": "Schottenring" }, "geometry": { "type": "Polygon", "coordinates": [ [ [ 16.358544, 48.218322 ], [ 16.358284, 48.21708 ], [ 16.358244, 48.216888 ], [ 16.358652, 48.214541 ], [ 16.358736, 48.214138 ], [ 16.358773, 48.213974 ], [ 16.358858, 48.213729 ], [ 16.361094, 48.212572 ], [ 16.361439, 48.21247 ], [ 16.361698, 48.212415 ], [ 16.365723, 48.210857 ], [ 16.367261, 48.208741 ], [ 16.367473, 48.208451 ], [ 16.368475, 48.208075 ], [ 16.37004, 48.207815 ], [ 16.371841, 48.207705 ], [ 16.37205, 48.207696 ], [ 16.374973, 48.207859 ], [ 16.378609, 48.208053 ], [ 16.379812, 48.2083 ], [ 16.381378, 48.208996 ], [ 16.384179, 48.210913 ], [ 16.384299, 48.211102 ], [ 16.384593, 48.211616 ], [ 16.384771, 48.212082 ], [ 16.384324, 48.216035 ], [ 16.384107, 48.216322 ], [ 16.38376, 48.216611 ], [ 16.382109, 48.218155 ], [ 16.380932, 48.219421 ], [ 16.378727, 48.223318 ], [ 16.37779, 48.224134 ], [ 16.375077, 48.225218 ], [ 16.370544, 48.226714 ], [ 16.369843, 48.226799 ], [ 16.365686, 48.226937 ], [ 16.363355, 48.225192 ], [ 16.359599, 48.221805 ], [ 16.359341, 48.221554 ], [ 16.358544, 48.218322 ] ] ] } },
{ "type": "Feature", "properties": { "group_index": 6, "value": 300.0, "center": [ 16.42064926521691, 48.21038719862274 ], "station_id": 6, "station_name": "Stadion" }, "geometry": { "type": "Polygon", "coordinates": [ [ [ 16.417075, 48.213027 ], [ 16.416607, 48.210638 ], [ 16.416795, 48.208695 ], [ 16.417946, 48.207392 ], [ 16.418403, 48.207108 ], [ 16.419001, 48.207052 ], [ 16.423175, 48.207856 ], [ 16.424532, 48.208952 ], [ 16.424569, 48.209054 ], [ 16.424595, 48.211122 ], [ 16.424582, 48.21139 ], [ 16.424572, 48.211397 ], [ 16.423177, 48.212275 ], [ 16.421319, 48.21329 ], [ 16.421173, 48.213296 ], [ 16.417381, 48.213359 ], [ 16.417248, 48.213343 ], [ 16.417075, 48.213027 ] ] ] } },
{ "type": "Feature", "properties": { "group_index": 6, "value": 600.0, "center": [ 16.42064926521691, 48.21038719862274 ], "station_id": 6, "station_name": "Stadion" }, "geometry": { "type": "Polygon", "coordinates": [ [ [ 16.412243, 48.212962 ], [ 16.412035, 48.211857 ], [ 16.412029, 48.211643 ], [ 16.412037, 48.211497 ], [ 16.412293, 48.208 ], [ 16.413047, 48.206593 ], [ 16.413275, 48.206314 ], [ 16.415814, 48.203906 ], [ 16.415951, 48.203815 ], [ 16.416264, 48.203637 ], [ 16.41891, 48.202796 ], [ 16.419077, 48.203115 ], [ 16.421508, 48.206013 ], [ 16.422275, 48.206529 ], [ 16.427663, 48.207108 ], [ 16.427877, 48.207065 ], [ 16.428476, 48.207063 ], [ 16.428947, 48.207073 ], [ 16.429157, 48.207366 ], [ 16.429107, 48.20831 ], [ 16.4284, 48.208805 ], [ 16.424304, 48.212622 ], [ 16.420016, 48.215665 ], [ 16.419426, 48.215843 ], [ 16.41827, 48.216046 ], [ 16.414958, 48.21612 ], [ 16.413065, 48.215603 ], [ 16.413044, 48.215585 ], [ 16.412243, 48.212962 ] ] ] } },
{ "type": "Feature", "properties": { "group_index": 6, "value": 900.0, "center": [ 16.42064926521691, 48.21038719862274 ], "station_id": 6, "station_name": "Stadion" }, "geometry": { "type": "Polygon", "coordinates": [ [ [ 16.407198, 48.213095 ], [ 16.407186, 48.207661 ], [ 16.407263, 48.207309 ], [ 16.410491, 48.202971 ], [ 16.412319, 48.201064 ], [ 16.41511, 48.200127 ], [ 16.415275, 48.200101 ], [ 16.419941, 48.200415 ], [ 16.421905, 48.201131 ], [ 16.422073, 48.20145 ], [ 16.422064, 48.201876 ], [ 16.427421, 48.204533 ], [ 16.428933, 48.204357 ], [ 16.42983, 48.204301 ], [ 16.432693, 48.20423 ], [ 16.432864, 48.20445 ], [ 16.432901, 48.204524 ], [ 16.433075, 48.205467 ], [ 16.43313, 48.206138 ], [ 16.430324, 48.208193 ], [ 16.425497, 48.211728 ], [ 16.424304, 48.212622 ], [ 16.420016, 48.215665 ], [ 16.416571, 48.218312 ], [ 16.416277, 48.218523 ], [ 16.415984, 48.218735 ], [ 16.41396, 48.219186 ], [ 16.4115, 48.218844 ], [ 16.409522, 48.218417 ], [ 16.409112, 48.21819 ], [ 16.408568, 48.217878 ], [ 16.407198, 48.213095 ] ] ] } },
{ "type": "Feature", "properties": { "group_index": 7, "value": 300.0, "center": [ 16.38135736061109, 48.21913234287824 ], "station_id": 7, "station_name": "Taborstraße" }, "geometry": { "type": "Polygon", "coordinates": [ [ [ 16.377295, 48.221256 ], [ 16.376382, 48.219843 ], [ 16.376403, 48.219802 ], [ 16.377302, 48.218668 ], [ 16.378291, 48.217793 ], [ 16.379454, 48.21699 ], [ 16.380364, 48.21641 ], [ 16.380699, 48.216278 ], [ 16.385877, 48.218503 ], [ 16.385953, 48.218855 ], [ 16.385269, 48.219903 ], [ 16.384006, 48.221353 ], [ 16.383678, 48.221503 ], [ 16.382053, 48.221794 ], [ 16.380819, 48.221791 ], [ 16.378023, 48.221616 ], [ 16.377505, 48.221549 ], [ 16.377295, 48.221256 ] ] ] } },
{ "type": "Feature", "properties": { "group_index": 7, "value": 600.0, "center": [ 16.38135736061109, 48.21913234287824 ], "station_id": 7, "station_name": "Taborstraße" }, "geometry": { "type": "Polygon", "coordinates": [ [ [ 16.373765, 48.223952 ], [ 16.372832, 48.222597 ], [ 16.372658, 48.222282 ], [ 16.372063, 48.220827 ], [ 16.37187, 48.218658 ], [ 16.372715, 48.217717 ], [ 16.372853, 48.217584 ], [ 16.373142, 48.217318 ], [ 16.376076, 48.214803 ], [ 16.378045, 48.213358 ], [ 16.379308, 48.212677 ], [ 16.379451, 48.212711 ], [ 16.380896, 48.213192 ], [ 16.383928, 48.214546 ], [ 16.387442, 48.215268 ], [ 16.390531, 48.217155 ], [ 16.391202, 48.217699 ], [ 16.391201, 48.218059 ], [ 16.389897, 48.221047 ], [ 16.38989, 48.221056 ], [ 16.38559, 48.224977 ], [ 16.385303, 48.225067 ], [ 16.38386, 48.225356 ], [ 16.383324, 48.22539 ], [ 16.380691, 48.225109 ], [ 16.379406, 48.224667 ], [ 16.374029, 48.224263 ], [ 16.373765, 48.223952 ] ] ] } },
{ "type": "Feature", "properties": { "group_index": 7, "value": 900.0, "center": [ 16.38135736061109, 48.21913234287824 ], "station_id": 7, "station_name": "Taborstraße" }, "geometry": { "type": "Polygon", "coordinates": [ [ [ 16.368738, 48.224591 ], [ 16.36771, 48.219481 ], [ 16.367727, 48.219334 ], [ 16.367971, 48.217588 ], [ 16.368124, 48.217262 ], [ 16.368165, 48.217205 ], [ 16.371791, 48.21285 ], [ 16.372633, 48.21216 ], [ 16.374733, 48.210469 ], [ 16.374756, 48.210457 ], [ 16.378673, 48.20933 ], [ 16.379183, 48.2094 ], [ 16.380124, 48.2097 ], [ 16.381438, 48.210434 ], [ 16.383092, 48.211267 ], [ 16.383251, 48.211342 ], [ 16.38618, 48.212828 ], [ 16.390446, 48.213434 ], [ 16.391404, 48.213546 ], [ 16.392527, 48.213979 ], [ 16.392623, 48.214025 ], [ 16.395047, 48.215236 ], [ 16.395357, 48.215712 ], [ 16.396405, 48.217638 ], [ 16.396443, 48.217713 ], [ 16.396446, 48.217738 ], [ 16.396451, 48.217788 ], [ 16.39645, 48.218148 ], [ 16.395319, 48.22062 ], [ 16.395154, 48.22094 ], [ 16.392276, 48.224083 ], [ 16.388312, 48.227566 ], [ 16.387877, 48.22777 ], [ 16.387139, 48.227872 ], [ 16.382049, 48.228371 ], [ 16.380905, 48.22868 ], [ 16.380781, 48.228691 ], [ 16.38004, 48.228658 ], [ 16.374882, 48.22742 ], [ 16.371362, 48.227351 ], [ 16.370013, 48.226617 ], [ 16.369899, 48.226515 ], [ 16.369461, 48.226114 ], [ 16.368738, 48.224591 ] ] ] } },
{ "type": "Feature", "properties": { "group_index": 8, "value": 300.0, "center": [ 16.40107764286004, 48.223603025355374 ], "station_id": 8, "station_name": "Vorgartenstraße" }, "geometry": { "type": "Polygon", "coordinates": [ [ [ 16.396928, 48.22285 ], [ 16.396912, 48.221399 ], [ 16.39708, 48.221081 ], [ 16.398484, 48.22096 ], [ 16.401965, 48.220706 ], [ 16.403471, 48.221326 ], [ 16.404458, 48.221946 ], [ 16.404678, 48.222231 ], [ 16.405041, 48.222705 ], [ 16.40525, 48.222998 ], [ 16.405761, 48.224056 ], [ 16.405765, 48.22407 ], [ 16.406261, 48.226168 ], [ 16.40609, 48.226484 ], [ 16.40223, 48.22616 ], [ 16.399942, 48.226097 ], [ 16.397749, 48.225474 ], [ 16.397639, 48.225417 ], [ 16.396928, 48.22285 ] ] ] } },
{ "type": "Feature", "properties": { "group_index": 8, "value": 600.0, "center": [ 16.40107764286004, 48.223603025355374 ], "station_id": 8, "station_name": "Vorgartenstraße" }, "geometry": { "type": "Polygon", "coordinates": [ [ [ 16.394283, 48.228044 ], [ 16.393349, 48.225575 ], [ 16.39277, 48.223175 ], [ 16.392542, 48.221415 ], [ 16.39239, 48.219829 ], [ 16.392402, 48.219688 ], [ 16.392414, 48.219605 ], [ 16.392608, 48.219111 ], [ 16.392733, 48.218979 ], [ 16.393596, 48.218488 ], [ 16.397027, 48.217914 ], [ 16.400501, 48.217332 ], [ 16.40147, 48.217202 ], [ 16.403556, 48.217384 ], [ 16.407271, 48.218643 ], [ 16.408155, 48.219123 ], [ 16.408842, 48.220001 ], [ 16.409052, 48.220294 ], [ 16.409631, 48.221473 ], [ 16.409683, 48.222393 ], [ 16.40998, 48.228091 ], [ 16.409876, 48.22822 ], [ 16.409729, 48.228349 ], [ 16.409598, 48.22838 ], [ 16.408723, 48.228115 ], [ 16.402788, 48.228841 ], [ 16.402578, 48.229006 ], [ 16.399531, 48.229075 ], [ 16.396348, 48.228908 ], [ 16.394518, 48.228317 ], [ 16.394283, 48.228044 ] ] ] } },
{ "type": "Feature", "properties": { "group_index": 8, "value": 900.0, "center": [ 16.40107764286004, 48.223603025355374 ], "station_id": 8, "station_name": "Vorgartenstraße" }, "geometry": { "type": "Polygon", "coordinates": [ [ [ 16.389641, 48.228234 ], [ 16.387923, 48.224376 ], [ 16.387777, 48.224047 ], [ 16.387441, 48.219616 ], [ 16.387466, 48.219029 ], [ 16.387813, 48.218474 ], [ 16.388887, 48.217079 ], [ 16.391036, 48.215924 ], [ 16.395837, 48.214818 ], [ 16.401414, 48.214154 ], [ 16.403204, 48.214148 ], [ 16.405725, 48.21444 ], [ 16.406538, 48.214545 ], [ 16.411754, 48.216322 ], [ 16.412718, 48.21728 ], [ 16.412927, 48.217573 ], [ 16.41328, 48.218285 ], [ 16.413422, 48.219593 ], [ 16.413449, 48.220791 ], [ 16.413943, 48.226023 ], [ 16.414265, 48.229744 ], [ 16.414266, 48.23032 ], [ 16.414247, 48.230364 ], [ 16.41409, 48.230688 ], [ 16.411762, 48.230908 ], [ 16.40963, 48.231076 ], [ 16.406496, 48.231318 ], [ 16.406394, 48.231268 ], [ 16.400615, 48.230315 ], [ 16.400137, 48.230701 ], [ 16.399401, 48.231531 ], [ 16.399191, 48.231706 ], [ 16.398981, 48.231881 ], [ 16.397759, 48.232406 ], [ 16.392873, 48.231854 ], [ 16.391711, 48.231491 ], [ 16.391149, 48.231308 ], [ 16.390926, 48.2312 ], [ 16.389641, 48.228234 ] ] ] } }
]
}
