{
"type": "FeatureCollection",
"name": "vienna_metro",
"crs": { "type": "name", "properties": { "name": "urn:ogc:def:crs:OGC:1.3:CRS84" } },
"features": [
{ "type": "Feature", "properties": { "name": "Aderklaaer Straße", "line": 1, "opened_year": 2006, "opened_month": 9 }, "geometry": { "type": "Point", "coordinates": [ 16.45162581, 48.26342057 ] } },
{ "type": "Feature", "properties": { "name": "Alaudagasse", "line": 1, "opened_year": 2017, "opened_month": 9 }, "geometry": { "type": "Point", "coordinates": [ 16.38236497, 48.15363218 ] } },
{ "type": "Feature", "properties": { "name": "Alte Donau", "line": 1, "opened_year": 1982, "opened_month": 9 }, "geometry": { "type": "Point", "coordinates": [ 16.42490112, 48.23833807 ] } },
{ "type": "Feature", "properties": { "name": "Altes Landgut", "line": 1, "opened_year": 2017, "opened_month": 9 }, "geometry": { "type": "Point", "coordinates": [ 16.38322916, 48.16194895 ] } },
{ "type": "Feature", "properties": { "name": "Donauinsel", "line": 1, "opened_year": 1982, "opened_month": 9 }, "geometry": { "type": "Point", "coordinates": [ 16.41135997, 48.22922776 ] } },
{ "type": "Feature", "properties": { "name": "Großfeldsiedlung", "line": 1, "opened_year": 2006, "opened_month": 9 }, "geometry": { "type": "Point", "coordinates": [ 16.44788226, 48.27101085 ] } },
{ "type": "Feature", "properties": { "name": "Kagran", "line": 1, "opened_year": 2006, "opened_month": 9 }, "geometry": { "type": "Point", "coordinates": [ 16.43285809, 48.2429593 ] } },
{ "type": "Feature", "properties": { "name": "Kagraner Platz", "line": 1, "opened_year": 2006, "opened_month": 9 }, "geometry": { "type": "Point", "coordinates": [ 16.44325641, 48.25022263 ] } },
{ "type": "Feature", "properties": { "name": "Kaisermühlen-VIC", "line": 1, "opened_year": 1982, "opened_month": 9 }, "geometry": { "type": "Point", "coordinates": [ 16.41649672, 48.23286193 ] } },
{ "type": "Feature", "properties": { "name": "Keplerplatz", "line": 1, "opened_year": 1978, "opened_month": 2 }, "geometry": { "type": "Point", "coordinates": [ 16.37618352, 48.17919218 ] } },
{ "type": "Feature", "properties": { "name": "Leopoldau", "line": 1, "opened_year": 2006, "opened_month": 9 }, "geometry": { "type": "Point", "coordinates": [ 16.45213944, 48.27751795 ] } },
{ "type": "Feature", "properties": { "name": "Nestroyplatz", "line": 1, "opened_year": 1981, "opened_month": 2 }, "geometry": { "type": "Point", "coordinates": [ 16.38511353, 48.21509154 ] } },
{ "type": "Feature", "properties": { "name": "Neulaa", "line": 1, "opened_year": 2017, "opened_month": 9 }, "geometry": { "type": "Point", "coordinates": [ 16.38655418, 48.14558951 ] } },
{ "type": "Feature", "properties": { "name": "Oberlaa", "line": 1, "opened_year": 2017, "opened_month": 9 }, "geometry": { "type": "Point", "coordinates": [ 16.40043009, 48.14219154 ] } },
{ "type": "Feature", "properties": { "name": "Praterstern", "line": 1, "opened_year": 1982, "opened_month": 9 }, "geometry": { "type": "Point", "coordinates": [ 16.39138172, 48.21887139 ] } },
{ "type": "Feature", "properties": { "name": "Rennbahnweg", "line": 1, "opened_year": 2006, "opened_month": 9 }, "geometry": { "type": "Point", "coordinates": [ 16.44964153, 48.25760294 ] } },
{ "type": "Feature", "properties": { "name": "Reumannplatz", "line": 1, "opened_year": 1978, "opened_month": 2 }, "geometry": { "type": "Point", "coordinates": [ 16.37790494, 48.17499004 ] } },
{ "type": "Feature", "properties": { "name": "Schwedenplatz", "line": 1, "opened_year": 1979, "opened_month": 11 }, "geometry": { "type": "Point", "coordinates": [ 16.37836606, 48.2118058 ] } },
{ "type": "Feature", "properties": { "name": "Stephansplatz", "line": 1, "opened_year": 1979, "opened_month": 11 }, "geometry": { "type": "Point", "coordinates": [ 16.3715305, 48.20804692 ] } },
{ "type": "Feature", "properties": { "name": "Südtiroler Platz - Hauptbahnhof", "line": 1, "opened_year": 1973, "opened_month": 8 }, "geometry": { "type": "Point", "coordinates": [ 16.37361302, 48.18714599 ] } },
{ "type": "Feature", "properties": { "name": "Taubstummengasse", "line": 1, "opened_year": 1973, "opened_month": 8 }, "geometry": { "type": "Point", "coordinates": [ 16.37034094, 48.19391617 ] } },
{ "type": "Feature", "properties": { "name": "Troststraße", "line": 1, "opened_year": 2017, "opened_month": 9 }, "geometry": { "type": "Point", "coordinates": [ 16.38031579, 48.16916285 ] } },
{ "type": "Feature", "properties": { "name": "Vorgartenstraße", "line": 1, "opened_year": 1982, "opened_month": 9 }, "geometry": { "type": "Point", "coordinates": [ 16.40107645, 48.22362936 ] } },
{ "type": "Feature", "properties": { "name": "Aspern Nord", "line": 2, "opened_year": 2013, "opened_month": 10 }, "geometry": { "type": "Point", "coordinates": [ 16.50449368, 48.234508 ] } },
{ "type": "Feature", "properties": { "name": "Aspernstraße", "line": 2, "opened_year": 2010, "opened_month": 10 }, "geometry": { "type": "Point", "coordinates": [ 16.47487161, 48.22252405 ] } },
{ "type": "Feature", "properties": { "name": "Donaumarina", "line": 2, "opened_year": 2010, "opened_month": 10 }, "geometry": { "type": "Point", "coordinates": [ 16.43161737, 48.20646512 ] } },
{ "type": "Feature", "properties": { "name": "Donauspital", "line": 2, "opened_year": 2010, "opened_month": 10 }, "geometry": { "type": "Point", "coordinates": [ 16.46661205, 48.2194192 ] } },
{ "type": "Feature", "properties": { "name": "Donaustadtbrücke", "line": 2, "opened_year": 2010, "opened_month": 10 }, "geometry": { "type": "Point", "coordinates": [ 16.44012498, 48.21176869 ] } },
{ "type": "Feature", "properties": { "name": "Hardeggasse", "line": 2, "opened_year": 2010, "opened_month": 10 }, "geometry": { "type": "Point", "coordinates": [ 16.45774984, 48.22089617 ] } },
{ "type": "Feature", "properties": { "name": "Hausfeldstraße", "line": 2, "opened_year": 2013, "opened_month": 10 }, "geometry": { "type": "Point", "coordinates": [ 16.48577251, 48.23340986 ] } },
{ "type": "Feature", "properties": { "name": "Krieau", "line": 2, "opened_year": 2008, "opened_month": 5 }, "geometry": { "type": "Point", "coordinates": [ 16.41375195, 48.21468636 ] } },
{ "type": "Feature", "properties": { "name": "Lina-Loos-Platz", "line": 2, "opened_year": 2026, "opened_month": 1 }, "geometry": { "type": "Point", "coordinates": [ 16.47856159, 48.22849267 ] } },
{ "type": "Feature", "properties": { "name": "Messe Prater", "line": 2, "opened_year": 2008, "opened_month": 5 }, "geometry": { "type": "Point", "coordinates": [ 16.40496301, 48.2177921 ] } },
{ "type": "Feature", "properties": { "name": "Museumsquartier", "line": 2, "opened_year": 1980, "opened_month": 8 }, "geometry": { "type": "Point", "coordinates": [ 16.36134465, 48.20257261 ] } },
{ "type": "Feature", "properties": { "name": "Rathaus", "line": 2, "opened_year": 1980, "opened_month": 8 }, "geometry": { "type": "Point", "coordinates": [ 16.35532367, 48.21027621 ] } },
{ "type": "Feature", "properties": { "name": "Schottentor", "line": 2, "opened_year": 1980, "opened_month": 8 }, "geometry": { "type": "Point", "coordinates": [ 16.36183606, 48.21452666 ] } },
{ "type": "Feature", "properties": { "name": "Seestadt", "line": 2, "opened_year": 2013, "opened_month": 10 }, "geometry": { "type": "Point", "coordinates": [ 16.50843802, 48.22625427 ] } },
{ "type": "Feature", "properties": { "name": "Stadion", "line": 2, "opened_year": 2008, "opened_month": 5 }, "geometry": { "type": "Point", "coordinates": [ 16.42025514, 48.21067149 ] } },
{ "type": "Feature", "properties": { "name": "Stadlau", "line": 2, "opened_year": 2010, "opened_month": 10 }, "geometry": { "type": "Point", "coordinates": [ 16.44966255, 48.21981745 ] } },
{ "type": "Feature", "properties": { "name": "Taborstraße", "line": 2, "opened_year": 2008, "opened_month": 5 }, "geometry": { "type": "Point", "coordinates": [ 16.38129174, 48.2191304 ] } },
{ "type": "Feature", "properties": { "name": "Enkplatz", "line": 3, "opened_year": 2000, "opened_month": 12 }, "geometry": { "type": "Point", "coordinates": [ 16.41479656, 48.17471882 ] } },
{ "type": "Feature", "properties": { "name": "Erdberg", "line": 3, "opened_year": 2000, "opened_month": 12 }, "geometry": { "type": "Point", "coordinates": [ 16.41414043, 48.1914252 ] } },
{ "type": "Feature", "properties": { "name": "Gasometer", "line": 3, "opened_year": 2000, "opened_month": 12 }, "geometry": { "type": "Point", "coordinates": [ 16.41746701, 48.1851431 ] } },
{ "type": "Feature", "properties": { "name": "Herrengasse", "line": 3, "opened_year": 1991, "opened_month": 4 }, "geometry": { "type": "Point", "coordinates": [ 16.36541232, 48.20934486 ] } },
{ "type": "Feature", "properties": { "name": "Hütteldorfer Straße", "line": 3, "opened_year": 1998, "opened_month": 12 }, "geometry": { "type": "Point", "coordinates": [ 16.31139384, 48.19979668 ] } },
{ "type": "Feature", "properties": { "name": "Johnstraße", "line": 3, "opened_year": 1994, "opened_month": 9 }, "geometry": { "type": "Point", "coordinates": [ 16.32007993, 48.19764233 ] } },
{ "type": "Feature", "properties": { "name": "Kardinal-Nagl-Platz", "line": 3, "opened_year": 1991, "opened_month": 4 }, "geometry": { "type": "Point", "coordinates": [ 16.39988287, 48.19755871 ] } },
{ "type": "Feature", "properties": { "name": "Kendlerstraße", "line": 3, "opened_year": 1998, "opened_month": 12 }, "geometry": { "type": "Point", "coordinates": [ 16.30914732, 48.20454027 ] } },
{ "type": "Feature", "properties": { "name": "Landstraße", "line": 3, "opened_year": 1991, "opened_month": 4 }, "geometry": { "type": "Point", "coordinates": [ 16.38391571, 48.20630111 ] } },
{ "type": "Feature", "properties": { "name": "Neubaugasse", "line": 3, "opened_year": 1993, "opened_month": 9 }, "geometry": { "type": "Point", "coordinates": [ 16.352275, 48.19917259 ] } },
{ "type": "Feature", "properties": { "name": "Ottakring", "line": 3, "opened_year": 1998, "opened_month": 12 }, "geometry": { "type": "Point", "coordinates": [ 16.3113666, 48.21105924 ] } },
{ "type": "Feature", "properties": { "name": "Rochusgasse", "line": 3, "opened_year": 1991, "opened_month": 4 }, "geometry": { "type": "Point", "coordinates": [ 16.39225371, 48.20208535 ] } },
{ "type": "Feature", "properties": { "name": "Schlachthausgasse", "line": 3, "opened_year": 1991, "opened_month": 4 }, "geometry": { "type": "Point", "coordinates": [ 16.40674862, 48.19441411 ] } },
{ "type": "Feature", "properties": { "name": "Schweglerstraße", "line": 3, "opened_year": 1994, "opened_month": 9 }, "geometry": { "type": "Point", "coordinates": [ 16.32851858, 48.1978009 ] } },
{ "type": "Feature", "properties": { "name": "Simmering", "line": 3, "opened_year": 2000, "opened_month": 12 }, "geometry": { "type": "Point", "coordinates": [ 16.42070011, 48.16964932 ] } },
{ "type": "Feature", "properties": { "name": "Stubentor", "line": 3, "opened_year": 1991, "opened_month": 4 }, "geometry": { "type": "Point", "coordinates": [ 16.37913083, 48.20681644 ] } },
{ "type": "Feature", "properties": { "name": "Volkstheater", "line": 3, "opened_year": 1991, "opened_month": 4 }, "geometry": { "type": "Point", "coordinates": [ 16.35826002, 48.20491575 ] } },
{ "type": "Feature", "properties": { "name": "Westbahnhof", "line": 3, "opened_year": 1993, "opened_month": 9 }, "geometry": { "type": "Point", "coordinates": [ 16.33960156, 48.19583834 ] } },
{ "type": "Feature", "properties": { "name": "Zieglergasse", "line": 3, "opened_year": 1993, "opened_month": 9 }, "geometry": { "type": "Point", "coordinates": [ 16.3459801, 48.19708046 ] } },
{ "type": "Feature", "properties": { "name": "Zippererstraße", "line": 3, "opened_year": 2000, "opened_month": 12 }, "geometry": { "type": "Point", "coordinates": [ 16.41206572, 48.18043933 ] } },
{ "type": "Feature", "properties": { "name": "Braunschweiggasse", "line": 4, "opened_year": 1981, "opened_month": 12 }, "geometry": { "type": "Point", "coordinates": [ 16.29580344, 48.18941245 ] } },
{ "type": "Feature", "properties": { "name": "Friedensbrücke", "line": 4, "opened_year": 1976, "opened_month": 5 }, "geometry": { "type": "Point", "coordinates": [ 16.36401151, 48.22776733 ] } },
{ "type": "Feature", "properties": { "name": "Heiligenstadt", "line": 4, "opened_year": 1976, "opened_month": 5 }, "geometry": { "type": "Point", "coordinates": [ 16.36581068, 48.24845155 ] } },
{ "type": "Feature", "properties": { "name": "Hietzing", "line": 4, "opened_year": 1981, "opened_month": 8 }, "geometry": { "type": "Point", "coordinates": [ 16.30503097, 48.18754674 ] } },
{ "type": "Feature", "properties": { "name": "Hütteldorf", "line": 4, "opened_year": 1981, "opened_month": 12 }, "geometry": { "type": "Point", "coordinates": [ 16.26083539, 48.1969571 ] } },
{ "type": "Feature", "properties": { "name": "Karlsplatz", "line": 4, "opened_year": 1978, "opened_month": 8 }, "geometry": { "type": "Point", "coordinates": [ 16.36867935, 48.200462 ] } },
{ "type": "Feature", "properties": { "name": "Kettenbrückengasse", "line": 4, "opened_year": 1980, "opened_month": 10 }, "geometry": { "type": "Point", "coordinates": [ 16.35797641, 48.19661503 ] } },
{ "type": "Feature", "properties": { "name": "Margaretengürtel", "line": 4, "opened_year": 1980, "opened_month": 10 }, "geometry": { "type": "Point", "coordinates": [ 16.34295428, 48.18848405 ] } },
{ "type": "Feature", "properties": { "name": "Meidling Hauptstraße", "line": 4, "opened_year": 1980, "opened_month": 10 }, "geometry": { "type": "Point", "coordinates": [ 16.32776466, 48.18364508 ] } },
{ "type": "Feature", "properties": { "name": "Ober Sankt Veit", "line": 4, "opened_year": 1981, "opened_month": 12 }, "geometry": { "type": "Point", "coordinates": [ 16.2762058, 48.19223963 ] } },
{ "type": "Feature", "properties": { "name": "Pilgramgasse", "line": 4, "opened_year": 1980, "opened_month": 10 }, "geometry": { "type": "Point", "coordinates": [ 16.35424098, 48.19203139 ] } },
{ "type": "Feature", "properties": { "name": "Roßauer Lände", "line": 4, "opened_year": 1978, "opened_month": 4 }, "geometry": { "type": "Point", "coordinates": [ 16.36756855, 48.22225646 ] } },
{ "type": "Feature", "properties": { "name": "Schottenring", "line": 4, "opened_year": 1978, "opened_month": 4 }, "geometry": { "type": "Point", "coordinates": [ 16.37124488, 48.21714618 ] } },
{ "type": "Feature", "properties": { "name": "Schönbrunn", "line": 4, "opened_year": 1981, "opened_month": 8 }, "geometry": { "type": "Point", "coordinates": [ 16.31895549, 48.18604734 ] } },
{ "type": "Feature", "properties": { "name": "Spittelau", "line": 4, "opened_year": 1976, "opened_month": 5 }, "geometry": { "type": "Point", "coordinates": [ 16.35843332, 48.23563137 ] } },
{ "type": "Feature", "properties": { "name": "Stadtpark", "line": 4, "opened_year": 1978, "opened_month": 8 }, "geometry": { "type": "Point", "coordinates": [ 16.37957835, 48.20280867 ] } },
{ "type": "Feature", "properties": { "name": "Unter Sankt Veit", "line": 4, "opened_year": 1981, "opened_month": 12 }, "geometry": { "type": "Point", "coordinates": [ 16.28594827, 48.19112795 ] } },
{ "type": "Feature", "properties": { "name": "Alser Straße", "line": 6, "opened_year": 1989, "opened_month": 10 }, "geometry": { "type": "Point", "coordinates": [ 16.34181514, 48.21677509 ] } },
{ "type": "Feature", "properties": { "name": "Alterlaa", "line": 6, "opened_year": 1995, "opened_month": 4 }, "geometry": { "type": "Point", "coordinates": [ 16.31687581, 48.15072751 ] } },
{ "type": "Feature", "properties": { "name": "Am Schöpfwerk", "line": 6, "opened_year": 1995, "opened_month": 4 }, "geometry": { "type": "Point", "coordinates": [ 16.3242297, 48.16071547 ] } },
{ "type": "Feature", "properties": { "name": "Bahnhof Meidling", "line": 6, "opened_year": 1995, "opened_month": 4 }, "geometry": { "type": "Point", "coordinates": [ 16.33149602, 48.17420186 ] } },
{ "type": "Feature", "properties": { "name": "Burggasse-Stadthalle", "line": 6, "opened_year": 1989, "opened_month": 10 }, "geometry": { "type": "Point", "coordinates": [ 16.33719278, 48.20336517 ] } },
{ "type": "Feature", "properties": { "name": "Dresdner Straße", "line": 6, "opened_year": 1996, "opened_month": 5 }, "geometry": { "type": "Point", "coordinates": [ 16.3801309, 48.23725572 ] } },
{ "type": "Feature", "properties": { "name": "Erlaaer Straße", "line": 6, "opened_year": 1995, "opened_month": 4 }, "geometry": { "type": "Point", "coordinates": [ 16.31653095, 48.14192169 ] } },
{ "type": "Feature", "properties": { "name": "Floridsdorf", "line": 6, "opened_year": 1996, "opened_month": 5 }, "geometry": { "type": "Point", "coordinates": [ 16.40044242, 48.25620482 ] } },
{ "type": "Feature", "properties": { "name": "Gumpendorfer Straße", "line": 6, "opened_year": 1989, "opened_month": 10 }, "geometry": { "type": "Point", "coordinates": [ 16.33751131, 48.19086807 ] } },
{ "type": "Feature", "properties": { "name": "Handelskai", "line": 6, "opened_year": 1996, "opened_month": 5 }, "geometry": { "type": "Point", "coordinates": [ 16.38570278, 48.24186062 ] } },
{ "type": "Feature", "properties": { "name": "Josefstädter Straße", "line": 6, "opened_year": 1989, "opened_month": 10 }, "geometry": { "type": "Point", "coordinates": [ 16.33916129, 48.21155031 ] } },
{ "type": "Feature", "properties": { "name": "Jägerstraße", "line": 6, "opened_year": 1996, "opened_month": 5 }, "geometry": { "type": "Point", "coordinates": [ 16.36863672, 48.23521722 ] } },
{ "type": "Feature", "properties": { "name": "Längenfeldgasse", "line": 6, "opened_year": 1989, "opened_month": 10 }, "geometry": { "type": "Point", "coordinates": [ 16.3349432, 48.1848016 ] } },
{ "type": "Feature", "properties": { "name": "Michelbeuern-AKH", "line": 6, "opened_year": 1989, "opened_month": 10 }, "geometry": { "type": "Point", "coordinates": [ 16.34427688, 48.22128121 ] } },
{ "type": "Feature", "properties": { "name": "Neue Donau", "line": 6, "opened_year": 1996, "opened_month": 5 }, "geometry": { "type": "Point", "coordinates": [ 16.39483433, 48.24640585 ] } },
{ "type": "Feature", "properties": { "name": "Niederhofstraße", "line": 6, "opened_year": 1995, "opened_month": 4 }, "geometry": { "type": "Point", "coordinates": [ 16.33118002, 48.18077634 ] } },
{ "type": "Feature", "properties": { "name": "Nußdorfer Straße", "line": 6, "opened_year": 1989, "opened_month": 10 }, "geometry": { "type": "Point", "coordinates": [ 16.35243561, 48.23132355 ] } },
{ "type": "Feature", "properties": { "name": "Perfektastraße", "line": 6, "opened_year": 1995, "opened_month": 4 }, "geometry": { "type": "Point", "coordinates": [ 16.31344727, 48.13688617 ] } },
{ "type": "Feature", "properties": { "name": "Siebenhirten", "line": 6, "opened_year": 1995, "opened_month": 4 }, "geometry": { "type": "Point", "coordinates": [ 16.30983742, 48.13051529 ] } },
{ "type": "Feature", "properties": { "name": "Thaliastraße", "line": 6, "opened_year": 1989, "opened_month": 10 }, "geometry": { "type": "Point", "coordinates": [ 16.33801541, 48.20780106 ] } },
{ "type": "Feature", "properties": { "name": "Tscherttegasse", "line": 6, "opened_year": 1995, "opened_month": 4 }, "geometry": { "type": "Point", "coordinates": [ 16.32766866, 48.16485978 ] } },
{ "type": "Feature", "properties": { "name": "Währinger Straße-Volksoper", "line": 6, "opened_year": 1989, "opened_month": 10 }, "geometry": { "type": "Point", "coordinates": [ 16.34949996, 48.22558693 ] } }
]
}
